[{"OBJECT_NAME":"DUTHSAT-2","OBJECT_ID":"2025-135C","EPOCH":"2026-03-09T21:32:17.103552","MEAN_MOTION":15.24292207,"ECCENTRICITY":0.00054547,"INCLINATION":97.4491,"RA_OF_ASC_NODE":185.111,"ARG_OF_PERICENTER":168.1696,"MEAN_ANOMALY":191.967,"EPHEMERIS_TYPE":0,"CLASSIFICATION_TYPE":"U","NORAD_CAT_ID":64530,"ELEMENT_SET_NO":999,"REV_AT_EPOCH":3979,"BSTAR":0.00073395674,"MEAN_MOTION_DOT":0.00017894,"MEAN_MOTION_DDOT":0},{"OBJECT_NAME":"DELTA 2 DEB [DPAF]","OBJECT_ID":"2006-016D","EPOCH":"2026-03-09T21:07:54.254784","MEAN_MOTION":15.23406385,"ECCENTRICITY":0.00032182,"INCLINATION":98.3285,"RA_OF_ASC_NODE":343.8839,"ARG_OF_PERICENTER":354.4951,"MEAN_ANOMALY":5.6247,"EPHEMERIS_TYPE":0,"CLASSIFICATION_TYPE":"U","NORAD_CAT_ID":29110,"ELEMENT_SET_NO":999,"REV_AT_EPOCH":6863,"BSTAR":0.0017599055,"MEAN_MOTION_DOT":0.00042014,"MEAN_MOTION_DDOT":0}]
